{"type": "FeatureCollection", "features": [ {"type": "Feature", "properties": {"norad_id": 66519, "name": "STARLINK-35931", "group": "last-30-days", "lat": -42.43689758179497, "lon": 31.215432302862844, "alt_km": 346.75547078637646, "timestamp": "2025-12-03T06:58:42.032734+00:00", "meta": {"OBJECT_NAME": "STARLINK-35931", "OBJECT_ID": "2025-265D", "EPOCH": "2025-12-02T20:00:03.000384", "MEAN_MOTION": 15.74982226, "ECCENTRICITY": 0.0001535, "INCLINATION": 42.9994, "RA_OF_ASC_NODE": 112.8669, "ARG_OF_PERICENTER": 271.5317, "MEAN_ANOMALY": 290.016, "EPHEMERIS_TYPE": 0, "CLASSIFICATION_TYPE": "U", "NORAD_CAT_ID": 66519, "ELEMENT_SET_NO": 999, "REV_AT_EPOCH": 340, "BSTAR": 0.00060276, "MEAN_MOTION_DOT": 0.00092905, "MEAN_MOTION_DDOT": 0}, "tle": {"line1": "1 66519U 25265D   25336.83336806  .00092905  00000+0  60276-3 0  9991", "line2": "2 66519  42.9994 112.8669 0001535 271.5317 290.0160 15.74982226  3400"}}, "geometry": {"type": "Point", "coordinates": [31.215432302862844, -42.43689758179497]}}, {"type": "Feature", "properties": {"norad_id": 66520, "name": "STARLINK-35952", "group": "last-30-days", "lat": -42.15433249196838, "lon": 33.78818843673399, "alt_km": 346.7694423324019, "timestamp": "2025-12-03T06:58:42.032743+00:00", "meta": {"OBJECT_NAME": "STARLINK-35952", "OBJECT_ID": "2025-265E", "EPOCH": "2025-12-02T20:00:03.000384", "MEAN_MOTION": 15.7501365, "ECCENTRICITY": 0.0001526, "INCLINATION": 42.9993, "RA_OF_ASC_NODE": 112.862, "ARG_OF_PERICENTER": 271.4232, "MEAN_ANOMALY": 292.0353, "EPHEMERIS_TYPE": 0, "CLASSIFICATION_TYPE": "U", "NORAD_CAT_ID": 66520, "ELEMENT_SET_NO": 999, "REV_AT_EPOCH": 340, "BSTAR": 0.00031913, "MEAN_MOTION_DOT": 0.00048772, "MEAN_MOTION_DDOT": 0}, "tle": {"line1": "1 66520U 25265E   25336.83336806  .00048772  00000+0  31913-3 0  9992", "line2": "2 66520  42.9993 112.8620 0001526 271.4232 292.0353 15.75013650  3406"}}, "geometry": {"type": "Point", "coordinates": [33.78818843673399, -42.15433249196838]}}, {"type": "Feature", "properties": {"norad_id": 66521, "name": "STARLINK-35915", "group": "last-30-days", "lat": -41.8173126161073, "lon": 36.31936355460752, "alt_km": 346.53653096502967, "timestamp": "2025-12-03T06:58:42.032753+00:00", "meta": {"OBJECT_NAME": "STARLINK-35915", "OBJECT_ID": "2025-265F", "EPOCH": "2025-12-02T20:00:03.000384", "MEAN_MOTION": 15.74937258, "ECCENTRICITY": 0.0001623, "INCLINATION": 42.9995, "RA_OF_ASC_NODE": 112.8572, "ARG_OF_PERICENTER": 272.7185, "MEAN_ANOMALY": 292.6681, "EPHEMERIS_TYPE": 0, "CLASSIFICATION_TYPE": "U", "NORAD_CAT_ID": 66521, "ELEMENT_SET_NO": 999, "REV_AT_EPOCH": 340, "BSTAR": 0.0013194, "MEAN_MOTION_DOT": 0.00206305, "MEAN_MOTION_DDOT": 0}, "tle": {"line1": "1 66521U 25265F   25336.83336806  .00206305  00000+0  13194-2 0  9991", "line2": "2 66521  42.9995 112.8572 0001623 272.7185 292.6681 15.74937258  3402"}}, "geometry": {"type": "Point", "coordinates": [36.31936355460752, -41.8173126161073]}}, {"type": "Feature", "properties": {"norad_id": 66522, "name": "STARLINK-35946", "group": "last-30-days", "lat": -41.422974539532014, "lon": 38.83310817069525, "alt_km": 346.5361383734971, "timestamp": "2025-12-03T06:58:42.032763+00:00", "meta": {"OBJECT_NAME": "STARLINK-35946", "OBJECT_ID": "2025-265G", "EPOCH": "2025-12-02T20:00:03.000384", "MEAN_MOTION": 15.7494886, "ECCENTRICITY": 0.0001575, "INCLINATION": 42.9993, "RA_OF_ASC_NODE": 112.8533, "ARG_OF_PERICENTER": 275.0931, "MEAN_ANOMALY": 292.2059, "EPHEMERIS_TYPE": 0, "CLASSIFICATION_TYPE": "U", "NORAD_CAT_ID": 66522, "ELEMENT_SET_NO": 999, "REV_AT_EPOCH": 340, "BSTAR": 0.0012718, "MEAN_MOTION_DOT": 0.0019877, "MEAN_MOTION_DDOT": 0}, "tle": {"line1": "1 66522U 25265G   25336.83336806  .00198770  00000+0  12718-2 0  9999", "line2": "2 66522  42.9993 112.8533 0001575 275.0931 292.2059 15.74948860  3405"}}, "geometry": {"type": "Point", "coordinates": [38.83310817069525, -41.422974539532014]}}, {"type": "Feature", "properties": {"norad_id": 66523, "name": "STARLINK-35969", "group": "last-30-days", "lat": -40.9813568184643, "lon": 41.279672433561096, "alt_km": 346.66176473326686, "timestamp": "2025-12-03T06:58:42.032773+00:00", "meta": {"OBJECT_NAME": "STARLINK-35969", "OBJECT_ID": "2025-265H", "EPOCH": "2025-12-02T20:00:03.000384", "MEAN_MOTION": 15.74981359, "ECCENTRICITY": 0.0001565, "INCLINATION": 42.9997, "RA_OF_ASC_NODE": 112.8474, "ARG_OF_PERICENTER": 284.9104, "MEAN_ANOMALY": 284.3102, "EPHEMERIS_TYPE": 0, "CLASSIFICATION_TYPE": "U", "NORAD_CAT_ID": 66523, "ELEMENT_SET_NO": 999, "REV_AT_EPOCH": 340, "BSTAR": 0.00064423, "MEAN_MOTION_DOT": 0.00099404, "MEAN_MOTION_DDOT": 0}, "tle": {"line1": "1 66523U 25265H   25336.83336806  .00099404  00000+0  64423-3 0  9995", "line2": "2 66523  42.9997 112.8474 0001565 284.9104 284.3102 15.74981359  3405"}}, "geometry": {"type": "Point", "coordinates": [41.279672433561096, -40.9813568184643]}}, {"type": "Feature", "properties": {"norad_id": 66524, "name": "STARLINK-35687", "group": "last-30-days", "lat": -40.48288361144945, "lon": 43.71504655202873, "alt_km": 346.70873929661775, "timestamp": "2025-12-03T06:58:42.032783+00:00", "meta": {"OBJECT_NAME": "STARLINK-35687", "OBJECT_ID": "2025-265J", "EPOCH": "2025-12-02T20:00:03.000384", "MEAN_MOTION": 15.74988893, "ECCENTRICITY": 0.000148, "INCLINATION": 42.9994, "RA_OF_ASC_NODE": 112.8422, "ARG_OF_PERICENTER": 278.7505, "MEAN_ANOMALY": 292.3822, "EPHEMERIS_TYPE": 0, "CLASSIFICATION_TYPE": "U", "NORAD_CAT_ID": 66524, "ELEMENT_SET_NO": 999, "REV_AT_EPOCH": 340, "BSTAR": 0.00056919, "MEAN_MOTION_DOT": 0.00087675, "MEAN_MOTION_DDOT": 0}, "tle": {"line1": "1 66524U 25265J   25336.83336806  .00087675  00000+0  56919-3 0  9994", "line2": "2 66524  42.9994 112.8422 0001480 278.7505 292.3822 15.74988893  3406"}}, "geometry": {"type": "Point", "coordinates": [43.71504655202873, -40.48288361144945]}}, {"type": "Feature", "properties": {"norad_id": 66525, "name": "STARLINK-35975", "group": "last-30-days", "lat": -39.92839507362562, "lon": 46.138160683414775, "alt_km": 346.56815541524065, "timestamp": "2025-12-03T06:58:42.032792+00:00", "meta": {"OBJECT_NAME": "STARLINK-35975", "OBJECT_ID": "2025-265K", "EPOCH": "2025-12-02T20:00:03.000384", "MEAN_MOTION": 15.74963305, "ECCENTRICITY": 0.0001502, "INCLINATION": 42.9994, "RA_OF_ASC_NODE": 112.8386, "ARG_OF_PERICENTER": 272.5856, "MEAN_ANOMALY": 300.4629, "EPHEMERIS_TYPE": 0, "CLASSIFICATION_TYPE": "U", "NORAD_CAT_ID": 66525, "ELEMENT_SET_NO": 999, "REV_AT_EPOCH": 340, "BSTAR": 0.001101, "MEAN_MOTION_DOT": 0.00171552, "MEAN_MOTION_DDOT": 0}, "tle": {"line1": "1 66525U 25265K   25336.83336806  .00171552  00000+0  11010-2 0  9995", "line2": "2 66525  42.9994 112.8386 0001502 272.5856 300.4629 15.74963305  3409"}}, "geometry": {"type": "Point", "coordinates": [46.138160683414775, -39.92839507362562]}}, {"type": "Feature", "properties": {"norad_id": 66526, "name": "STARLINK-35932", "group": "last-30-days", "lat": -39.32901131772035, "lon": 48.50138686069831, "alt_km": 346.4145120861331, "timestamp": "2025-12-03T06:58:42.032804+00:00", "meta": {"OBJECT_NAME": "STARLINK-35932", "OBJECT_ID": "2025-265L", "EPOCH": "2025-12-02T20:00:03.000384", "MEAN_MOTION": 15.74977919, "ECCENTRICITY": 0.0001709, "INCLINATION": 42.9995, "RA_OF_ASC_NODE": 112.8337, "ARG_OF_PERICENTER": 277.7826, "MEAN_ANOMALY": 297.1844, "EPHEMERIS_TYPE": 0, "CLASSIFICATION_TYPE": "U", "NORAD_CAT_ID": 66526, "ELEMENT_SET_NO": 999, "REV_AT_EPOCH": 329, "BSTAR": 0.00093271, "MEAN_MOTION_DOT": 0.00144893, "MEAN_MOTION_DDOT": 0}, "tle": {"line1": "1 66526U 25265L   25336.83336806  .00144893  00000+0  93271-3 0  9994", "line2": "2 66526  42.9995 112.8337 0001709 277.7826 297.1844 15.74977919  3294"}}, "geometry": {"type": "Point", "coordinates": [48.50138686069831, -39.32901131772035]}}, {"type": "Feature", "properties": {"norad_id": 66527, "name": "STARLINK-35935", "group": "last-30-days", "lat": -38.68710140147932, "lon": 50.806288479487954, "alt_km": 346.59246324073956, "timestamp": "2025-12-03T06:58:42.032814+00:00", "meta": {"OBJECT_NAME": "STARLINK-35935", "OBJECT_ID": "2025-265M", "EPOCH": "2025-12-02T20:00:03.000384", "MEAN_MOTION": 15.7495865, "ECCENTRICITY": 0.0001388, "INCLINATION": 42.9993, "RA_OF_ASC_NODE": 112.8292, "ARG_OF_PERICENTER": 273.5511, "MEAN_ANOMALY": 303.33, "EPHEMERIS_TYPE": 0, "CLASSIFICATION_TYPE": "U", "NORAD_CAT_ID": 66527, "ELEMENT_SET_NO": 999, "REV_AT_EPOCH": 340, "BSTAR": 0.0011527, "MEAN_MOTION_DOT": 0.00179774, "MEAN_MOTION_DDOT": 0}, "tle": {"line1": "1 66527U 25265M   25336.83336806  .00179774  00000+0  11527-2 0  9994", "line2": "2 66527  42.9993 112.8292 0001388 273.5511 303.3300 15.74958650  3402"}}, "geometry": {"type": "Point", "coordinates": [50.806288479487954, -38.68710140147932]}}, {"type": "Feature", "properties": {"norad_id": 66528, "name": "STARLINK-35928", "group": "last-30-days", "lat": -38.041338133434955, "lon": 52.940357880132396, "alt_km": 346.67407468884903, "timestamp": "2025-12-03T06:58:42.032826+00:00", "meta": {"OBJECT_NAME": "STARLINK-35928", "OBJECT_ID": "2025-265N", "EPOCH": "2025-12-02T20:00:03.000384", "MEAN_MOTION": 15.74956985, "ECCENTRICITY": 0.0001698, "INCLINATION": 42.9996, "RA_OF_ASC_NODE": 112.824, "ARG_OF_PERICENTER": 278.082, "MEAN_ANOMALY": 300.7006, "EPHEMERIS_TYPE": 0, "CLASSIFICATION_TYPE": "U", "NORAD_CAT_ID": 66528, "ELEMENT_SET_NO": 999, "REV_AT_EPOCH": 340, "BSTAR": 0.00029626, "MEAN_MOTION_DOT": 0.00045111, "MEAN_MOTION_DDOT": 0}, "tle": {"line1": "1 66528U 25265N   25336.83336806  .00045111  00000+0  29626-3 0  9992", "line2": "2 66528  42.9996 112.8240 0001698 278.0820 300.7006 15.74956985  3409"}}, "geometry": {"type": "Point", "coordinates": [52.940357880132396, -38.041338133434955]}}]}